O3B FM5                 
1 39188U 13031A   22302.40387855 -.00000015  00000+0  00000+0 0  9991
2 39188   0.0654  14.7877 0002711 207.7616 137.4372  5.00115305170667
O3B FM4                 
1 39189U 13031B   22302.25997194 -.00000015  00000+0  00000+0 0  9998
2 39189   0.0478 352.5642 0002655 229.2297 138.1933  5.00115809170677
O3B FM2                 
1 39190U 13031C   22302.55130230 -.00000016  00000+0  00000+0 0  9994
2 39190   0.0465 346.4627 0002668 234.5568 138.9677  5.00115055170737
O3B PFM                 
1 39191U 13031D   22302.17780395 -.00000015  00000+0  00000+0 0  9995
2 39191   0.0578  10.3300 0002693 207.8546 141.8039  5.00115696170281
O3B FM3                 
1 40079U 14038A   22302.23260036 -.00000015  00000+0  00000+0 0  9992
2 40079   0.0522 359.9469 0004735 197.6906 162.3535  5.00115293146667
O3B FM7                 
1 40080U 14038B   22302.77834066 -.00000016  00000+0  00000+0 0  9994
2 40080   0.0534 355.3040 0002212 266.9907  97.6873  5.00115470151529
O3B FM6                 
1 40081U 14038C   22302.80472568 -.00000016  00000+0  00000+0 0  9994
2 40081   0.0512 359.6126 0002772 220.0282 140.3460  5.00115270151476
O3B FM8                 
1 40082U 14038D   22302.25895411 -.00000015  00000+0  00000+0 0  9999
2 40082   0.0487 357.4214 0002653 218.1419 144.4265  5.00115624151561
O3B FM10                
1 40348U 14083A   22301.28560044 -.00000013  00000+0  00000+0 0  9995
2 40348   0.0527   9.5876 0002668 208.0445 142.3574  5.00115106143468
O3B FM11                
1 40349U 14083B   22302.29848939 -.00000015  00000+0  00000+0 0  9992
2 40349   0.0569   7.1660 0002735 226.3471 126.4692  5.00115322143539
O3B FM12                
1 40350U 14083C   22302.32570820 -.00000015  00000+0  00000+0 0  9999
2 40350   0.0560   6.7216 0002832 214.0093 139.2554  5.00115182143540
O3B FM9                 
1 40351U 14083D   22302.55241745 -.00000016  00000+0  00000+0 0  9997
2 40351   0.0581   6.8992 0002653 212.9786 140.1100  5.00116068143703
DIAMOND RED             
1 42783U 17036U   22302.85445822  .00017862  00000+0  61860-3 0  9995
2 42783  97.1848 339.1097 0009199 201.2710 158.8149 15.29866894297479
DIAMOND GREEN           
1 42785U 17036W   22302.06988812  .00013939  00000+0  48338-3 0  9997
2 42785  97.1850 338.4164 0008901 205.3907 154.6897 15.29879878297429
DIAMOND BLUE            
1 42786U 17036X   22302.06910350  .00013690  00000+0  47491-3 0  9993
2 42786  97.1852 338.4076 0008966 205.9401 154.1392 15.29871609297429
LEO VANTAGE 1           
1 43113U 18004C   22302.67208231  .00004528  00000+0  36211-3 0  9997
2 43113  99.2430  37.0571 0399875 147.9092 214.7136 14.54463011243740
O3B FM15                
1 43231U 18024A   22302.81825161 -.00000016  00000+0  00000+0 0  9995
2 43231   0.0501  12.0137 0003004 208.1848 139.7863  5.00116038 84668
O3B FM16                
1 43232U 18024B   22302.87165328 -.00000016  00000+0  00000+0 0  9994
2 43232   0.0477  16.0972 0002982 204.9600 138.9274  5.00115856 84839
O3B FM14                
1 43233U 18024C   22302.51155839 -.00000016  00000+0  00000+0 0  9992
2 43233   0.0463  17.1045 0002864 206.6556 136.2245  5.00115275 84582
O3B FM13                
1 43234U 18024D   22302.16530579 -.00000015  00000+0  00000+0 0  9991
2 43234   0.0597  13.1709 0003812 209.2446 137.5626  5.00115272 84680
O3B FM20                
1 44112U 19020A   22302.73814712 -.00000016  00000+0  00000+0 0  9992
2 44112   0.0522   9.0442 0003230 217.0086 133.9277  5.00115404 65209
O3B FM19                
1 44113U 19020B   22302.16530748 -.00000015  00000+0  00000+0 0  9993
2 44113   0.0744  15.9970 0001955 230.4283 113.5618  5.00115063 65055
O3B FM17                
1 44114U 19020C   22302.84544579 -.00000016  00000+0  00000+0 0  9997
2 44114   0.0332   2.4761 0003124 218.2019 139.3057  5.00115551 65166
O3B FM18                
1 44115U 19020D   22302.39216830 -.00000015  00000+0  00000+0 0  9993
2 44115   0.0526   9.1983 0002922 209.0396 141.7488  5.00115714 65271
SALSAT                  
1 46495U 20068K   22302.81892974  .00003348  00000+0  23871-3 0  9992
2 46495  97.7416 244.2799 0016278 175.3827 184.7553 15.05161910114398
